CCSDS_OMM_VERS = 2.0
CREATION_DATE  = 
ORIGINATOR     = 

OBJECT_NAME    = ATLAS CENTAUR R/B
OBJECT_ID      = 1972-065B
CENTER_NAME    = EARTH
REF_FRAME      = TEME
TIME_SYSTEM    = UTC
MEAN_ELEMENT_THEORY = SGP/SGP4

EPOCH          = 2026-02-15T04:38:23.215200
MEAN_MOTION    = 14.77620047
ECCENTRICITY   = .003379
INCLINATION    = 35.0015
RA_OF_ASC_NODE = 77.5814
ARG_OF_PERICENTER = 181.9572
MEAN_ANOMALY   = 178.1000

EPHEMERIS_TYPE = 0
CLASSIFICATION_TYPE = U
NORAD_CAT_ID   = 6155
ELEMENT_SET_NO = 999
REV_AT_EPOCH   = 83793
BSTAR          = .20887E-3
MEAN_MOTION_DOT = .1509E-4
MEAN_MOTION_DDOT = 0

CCSDS_OMM_VERS = 2.0
CREATION_DATE  = 
ORIGINATOR     = 

OBJECT_NAME    = SL-8 R/B
OBJECT_ID      = 1975-112B
CENTER_NAME    = EARTH
REF_FRAME      = TEME
TIME_SYSTEM    = UTC
MEAN_ELEMENT_THEORY = SGP/SGP4

EPOCH          = 2026-02-15T10:51:51.098400
MEAN_MOTION    = 14.38192065
ECCENTRICITY   = .00151376
INCLINATION    = 74.0591
RA_OF_ASC_NODE = 59.8201
ARG_OF_PERICENTER = 161.3567
MEAN_ANOMALY   = 198.8145

EPHEMERIS_TYPE = 0
CLASSIFICATION_TYPE = U
NORAD_CAT_ID   = 8459
ELEMENT_SET_NO = 999
REV_AT_EPOCH   = 62867
BSTAR          = .78710712E-4
MEAN_MOTION_DOT = .213E-5
MEAN_MOTION_DDOT = 0

CCSDS_OMM_VERS = 2.0
CREATION_DATE  = 
ORIGINATOR     = 

OBJECT_NAME    = SL-3 R/B
OBJECT_ID      = 1977-057B
CENTER_NAME    = EARTH
REF_FRAME      = TEME
TIME_SYSTEM    = UTC
MEAN_ELEMENT_THEORY = SGP/SGP4

EPOCH          = 2026-02-15T12:08:39.124032
MEAN_MOTION    = 15.44838899
ECCENTRICITY   = .00075174
INCLINATION    = 97.5733
RA_OF_ASC_NODE = 217.4662
ARG_OF_PERICENTER = 12.0525
MEAN_ANOMALY   = 348.0901

EPHEMERIS_TYPE = 0
CLASSIFICATION_TYPE = U
NORAD_CAT_ID   = 10114
ELEMENT_SET_NO = 999
REV_AT_EPOCH   = 66490
BSTAR          = .33186231E-3
MEAN_MOTION_DOT = .15494E-3
MEAN_MOTION_DDOT = 0

CCSDS_OMM_VERS = 2.0
CREATION_DATE  = 
ORIGINATOR     = 

OBJECT_NAME    = SEASAT 1
OBJECT_ID      = 1978-064A
CENTER_NAME    = EARTH
REF_FRAME      = TEME
TIME_SYSTEM    = UTC
MEAN_ELEMENT_THEORY = SGP/SGP4

EPOCH          = 2026-02-15T11:58:51.756960
MEAN_MOTION    = 14.46142708
ECCENTRICITY   = .00017228
INCLINATION    = 108.0159
RA_OF_ASC_NODE = 78.9312
ARG_OF_PERICENTER = 292.5178
MEAN_ANOMALY   = 67.5785

EPHEMERIS_TYPE = 0
CLASSIFICATION_TYPE = U
NORAD_CAT_ID   = 10967
ELEMENT_SET_NO = 999
REV_AT_EPOCH   = 50330
BSTAR          = .1318355E-3
MEAN_MOTION_DOT = .334E-5
MEAN_MOTION_DDOT = 0

CCSDS_OMM_VERS = 2.0
CREATION_DATE  = 
ORIGINATOR     = 

OBJECT_NAME    = SL-14 R/B
OBJECT_ID      = 1979-011B
CENTER_NAME    = EARTH
REF_FRAME      = TEME
TIME_SYSTEM    = UTC
MEAN_ELEMENT_THEORY = SGP/SGP4

EPOCH          = 2026-02-15T05:54:11.243808
MEAN_MOTION    = 14.91881372
ECCENTRICITY   = .0017317
INCLINATION    = 82.5242
RA_OF_ASC_NODE = 117.8680
ARG_OF_PERICENTER = 129.2865
MEAN_ANOMALY   = 230.9894

EPHEMERIS_TYPE = 0
CLASSIFICATION_TYPE = U
NORAD_CAT_ID   = 11267
ELEMENT_SET_NO = 999
REV_AT_EPOCH   = 52543
BSTAR          = .69985E-4
MEAN_MOTION_DOT = .735E-5
MEAN_MOTION_DDOT = 0

CCSDS_OMM_VERS = 2.0
CREATION_DATE  = 
ORIGINATOR     = 

OBJECT_NAME    = SL-8 R/B
OBJECT_ID      = 1979-089B
CENTER_NAME    = EARTH
REF_FRAME      = TEME
TIME_SYSTEM    = UTC
MEAN_ELEMENT_THEORY = SGP/SGP4

EPOCH          = 2026-02-15T13:12:34.252416
MEAN_MOTION    = 14.42336831
ECCENTRICITY   = .00167754
INCLINATION    = 74.0694
RA_OF_ASC_NODE = 132.0262
ARG_OF_PERICENTER = 307.2649
MEAN_ANOMALY   = 52.6976

EPHEMERIS_TYPE = 0
CLASSIFICATION_TYPE = U
NORAD_CAT_ID   = 11574
ELEMENT_SET_NO = 999
REV_AT_EPOCH   = 43291
BSTAR          = .89163145E-4
MEAN_MOTION_DOT = .268E-5
MEAN_MOTION_DDOT = 0

CCSDS_OMM_VERS = 2.0
CREATION_DATE  = 
ORIGINATOR     = 

OBJECT_NAME    = SL-14 R/B
OBJECT_ID      = 1980-005B
CENTER_NAME    = EARTH
REF_FRAME      = TEME
TIME_SYSTEM    = UTC
MEAN_ELEMENT_THEORY = SGP/SGP4

EPOCH          = 2026-02-15T05:51:42.052608
MEAN_MOTION    = 14.90901729
ECCENTRICITY   = .0014304
INCLINATION    = 82.5174
RA_OF_ASC_NODE = 328.5216
ARG_OF_PERICENTER = 235.3682
MEAN_ANOMALY   = 124.6189

EPHEMERIS_TYPE = 0
CLASSIFICATION_TYPE = U
NORAD_CAT_ID   = 11672
ELEMENT_SET_NO = 999
REV_AT_EPOCH   = 47314
BSTAR          = .76759E-4
MEAN_MOTION_DOT = .783E-5
MEAN_MOTION_DDOT = 0

CCSDS_OMM_VERS = 2.0
CREATION_DATE  = 
ORIGINATOR     = 

OBJECT_NAME    = SL-8 R/B
OBJECT_ID      = 1981-003B
CENTER_NAME    = EARTH
REF_FRAME      = TEME
TIME_SYSTEM    = UTC
MEAN_ELEMENT_THEORY = SGP/SGP4

EPOCH          = 2026-02-15T05:05:26.499264
MEAN_MOTION    = 15.10148641
ECCENTRICITY   = .0262589
INCLINATION    = 82.9402
RA_OF_ASC_NODE = 310.7936
ARG_OF_PERICENTER = 257.0188
MEAN_ANOMALY   = 100.1606

EPHEMERIS_TYPE = 0
CLASSIFICATION_TYPE = U
NORAD_CAT_ID   = 12139
ELEMENT_SET_NO = 999
REV_AT_EPOCH   = 31128
BSTAR          = .44588E-3
MEAN_MOTION_DOT = .1689E-3
MEAN_MOTION_DDOT = 0

CCSDS_OMM_VERS = 2.0
CREATION_DATE  = 
ORIGINATOR     = 

OBJECT_NAME    = SL-3 R/B
OBJECT_ID      = 1981-046B
CENTER_NAME    = EARTH
REF_FRAME      = TEME
TIME_SYSTEM    = UTC
MEAN_ELEMENT_THEORY = SGP/SGP4

EPOCH          = 2026-02-15T12:31:37.149600
MEAN_MOTION    = 15.41370502
ECCENTRICITY   = .00207993
INCLINATION    = 81.2345
RA_OF_ASC_NODE = 316.3458
ARG_OF_PERICENTER = 95.2674
MEAN_ANOMALY   = 265.0942

EPHEMERIS_TYPE = 0
CLASSIFICATION_TYPE = U
NORAD_CAT_ID   = 12465
ELEMENT_SET_NO = 999
REV_AT_EPOCH   = 43501
BSTAR          = .35489543E-3
MEAN_MOTION_DOT = .14966E-3
MEAN_MOTION_DDOT = 0

CCSDS_OMM_VERS = 2.0
CREATION_DATE  = 
ORIGINATOR     = 

OBJECT_NAME    = SL-3 R/B
OBJECT_ID      = 1981-103B
CENTER_NAME    = EARTH
REF_FRAME      = TEME
TIME_SYSTEM    = UTC
MEAN_ELEMENT_THEORY = SGP/SGP4

EPOCH          = 2026-02-15T12:57:14.158944
MEAN_MOTION    = 15.21101828
ECCENTRICITY   = .00133223
INCLINATION    = 81.1556
RA_OF_ASC_NODE = 239.4144
ARG_OF_PERICENTER = 4.4880
MEAN_ANOMALY   = 355.6468

EPHEMERIS_TYPE = 0
CLASSIFICATION_TYPE = U
NORAD_CAT_ID   = 12904
ELEMENT_SET_NO = 999
REV_AT_EPOCH   = 96986
BSTAR          = .32689967E-3
MEAN_MOTION_DOT = .7311E-4
MEAN_MOTION_DDOT = 0

CCSDS_OMM_VERS = 2.0
CREATION_DATE  = 
ORIGINATOR     = 

OBJECT_NAME    = SL-3 R/B
OBJECT_ID      = 1982-013B
CENTER_NAME    = EARTH
REF_FRAME      = TEME
TIME_SYSTEM    = UTC
MEAN_ELEMENT_THEORY = SGP/SGP4

EPOCH          = 2026-02-15T13:22:30.650880
MEAN_MOTION    = 15.21764655
ECCENTRICITY   = .00217323
INCLINATION    = 81.1748
RA_OF_ASC_NODE = 186.7009
ARG_OF_PERICENTER = 253.9564
MEAN_ANOMALY   = 105.9274

EPHEMERIS_TYPE = 0
CLASSIFICATION_TYPE = U
NORAD_CAT_ID   = 13068
ELEMENT_SET_NO = 999
REV_AT_EPOCH   = 40098
BSTAR          = .23167608E-3
MEAN_MOTION_DOT = .5311E-4
MEAN_MOTION_DDOT = 0

CCSDS_OMM_VERS = 2.0
CREATION_DATE  = 
ORIGINATOR     = 

OBJECT_NAME    = SL-3 R/B
OBJECT_ID      = 1982-039B
CENTER_NAME    = EARTH
REF_FRAME      = TEME
TIME_SYSTEM    = UTC
MEAN_ELEMENT_THEORY = SGP/SGP4

EPOCH          = 2026-02-15T12:35:03.711264
MEAN_MOTION    = 15.09954380
ECCENTRICITY   = .00300279
INCLINATION    = 81.1595
RA_OF_ASC_NODE = 241.5125
ARG_OF_PERICENTER = 36.9526
MEAN_ANOMALY   = 323.3759

EPHEMERIS_TYPE = 0
CLASSIFICATION_TYPE = U
NORAD_CAT_ID   = 13154
ELEMENT_SET_NO = 999
REV_AT_EPOCH   = 37829
BSTAR          = .1794098E-3
MEAN_MOTION_DOT = .2965E-4
MEAN_MOTION_DDOT = 0

