ATLAS CENTAUR R/B       
1 06155U 72065B   26046.19332425  .00001509  00000+0  20887-3 0  9996
2 06155  35.0015  77.5814 0033790 181.9572 178.1000 14.77620047837935
SL-8 R/B                
1 08459U 75112B   26046.45267475  .00000213  00000+0  78711-4 0  9993
2 08459  74.0591  59.8201 0015137 161.3567 198.8145 14.38192065628679
SL-3 R/B                
1 10114U 77057B   26046.50600838  .00015494  00000+0  33186-3 0  9997
2 10114  97.5733 217.4662 0007517  12.0525 348.0901 15.44838899664905
SEASAT 1                
1 10967U 78064A   26046.49921015  .00000334  00000+0  13184-3 0  9996
2 10967 108.0159  78.9312 0001722 292.5178  67.5785 14.46142708503301
SL-14 R/B               
1 11267U 79011B   26046.24596347  .00000735  00000+0  69985-4 0  9998
2 11267  82.5242 117.8680 0017317 129.2865 230.9894 14.91881372525433
SL-8 R/B                
1 11574U 79089B   26046.55039644  .00000268  00000+0  89163-4 0  9991
2 11574  74.0694 132.0262 0016775 307.2649  52.6976 14.42336831432912
SL-14 R/B               
1 11672U 80005B   26046.24423672  .00000783  00000+0  76759-4 0  9993
2 11672  82.5174 328.5216 0014304 235.3682 124.6189 14.90901729473146
SL-8 R/B                
1 12139U 81003B   26046.21211226  .00016890  00000+0  44588-3 0  9998
2 12139  82.9402 310.7936 0262589 257.0188 100.1606 15.10148641311285
SL-3 R/B                
1 12465U 81046B   26046.52195775  .00014966  00000+0  35490-3 0  9995
2 12465  81.2345 316.3458 0020799  95.2674 265.0942 15.41370502435012
SL-3 R/B                
1 12904U 81103B   26046.53974721  .00007311  00000+0  32690-3 0  9999
2 12904  81.1556 239.4144 0013322   4.4880 355.6468 15.21101828969860
SL-3 R/B                
1 13068U 82013B   26046.55729920  .00005311  00000+0  23168-3 0  9991
2 13068  81.1748 186.7009 0021732 253.9564 105.9274 15.21764655400980
SL-3 R/B                
1 13154U 82039B   26046.52434851  .00002965  00000+0  17941-3 0  9992
2 13154  81.1595 241.5125 0030027  36.9526 323.3759 15.09954380378293
